[Satellite]
VERSION=1.1
NAME=FLOCK 3P-82
NICKNAME=FLOCK 3P-82
TLE1=1 42046U 17008DC  18020.80133009  .00002630  00000-0  11144-3 0  9992
TLE2=2 42046  97.4714  86.5609 0009410 145.7337 214.4509 15.24017111 50898
